{
  "norad_id": 60592,
  "name": "STARLINK-31497",
  "history": [
    {
      "epoch": "2026-03-28T15:36:51.044256",
      "apogee_km": 475.96955880610585,
      "perigee_km": 474.50841904526624,
      "latitude_deg": -21.384225948310178,
      "longitude_deg": -58.34328416013159,
      "semi_major_axis_km": 6853.375988925685,
      "eccentricity": 0.0001066,
      "inclination_deg": 53.1586,
      "raan_deg": 219.0041,
      "arg_perigee_deg": 76.1189,
      "mean_anomaly_deg": 283.993,
      "mean_motion_rev_day": 15.30191989
    }
  ]
}