{"fetched_at":"2026-03-30T06:02:59Z","count":15439,"tles":[{"name":"STARLINK-31497","line1":"1 60592U 24150K   26087.65059079 -.00000881  00000+0 -17645-4 0  9993","line2":"2 60592  53.1586 219.0041 0001066  76.1189 283.9930 15.30191989 90946","category":"Starlink"}]}